Duchifat 3
1 44854U 19089C   22363.47587876  .00005242  00000-0  39011-3 0  9990
2 44854  36.9652  22.9097 0007176   0.3805 149.3113 15.02759188167264
OPS-SAT
1 44878U 19092F   22363.74175206  .00013738  00000-0  56300-3 0  9999
2 44878  97.4764 186.5616 0012171  23.0099 337.1681 15.24326700167898
TO-108
1 44881U 19093C   22363.18466049  .00000788  00000-0  10589-3 0  9990
2 44881  97.8788  79.4700 0013484 272.9022  87.0677 14.81996793163614
FloripaSat 1
1 44885U 19093G   22363.67698777  .00002697  00000-0  33000-3 0  9997
2 44885  97.8845  81.8407 0012822 275.9099  84.0698 14.84004128163799
RS-44
1 44909U 19096E   22363.25497789  .00000023  00000-0  52197-4 0  9991
2 44909  82.5217 100.8675 0216891 224.0446 134.3200 12.79717347140421
BY70-2
1 45857U 20042B   22363.94081313  .00010370  00000-0  12834-2 0  9993
2 45857  97.9418  79.1451 0009954 194.8452 165.2475 14.82893055134391
UPMSat 2
1 46276U 20061E   22363.43549331  .00004805  00000-0  22649-3 0  9995
2 46276  97.3707  69.7748 0001477 142.0054 218.1286 15.19956906128477
AmicalSat
1 46287U 20061R   22363.42476040  .00006189  00000-0  33437-3 0  9996
2 46287  97.4250  68.5382 0001946   2.2249 357.8992 15.15053188127962
SALSAT
1 46495U 20068K   22363.43974777  .00003512  00000-0  24748-3 0  9997
2 46495  97.7526 305.1309 0015642 343.4830  16.5885 15.05586992123515
BY70-3
1 46839U 20079N   22363.84398684  .00058348  00000-0  85778-3 0  9990
2 46839  97.1770  74.5784 0003297 355.4140 146.0831 15.55282785120454
CAPE 3
1 47309U 21002A   22363.51308533  .00014409  00000-0  49639-3 0  9994
2 47309  60.6824 348.5818 0042173  91.6974 268.8947 15.29470960108232
AO-109
1 47311U 21002C   22363.52953241  .00012230  00000-0  42591-3 0  9990
2 47311  60.6847 345.9498 0038842  89.9624 270.5917 15.29380755108256
MiTEE 1
1 47314U 21002F   22363.47358833  .00035645  00000-0  87380-3 0  9993
2 47314  60.6796 331.6296 0036093  83.1058 277.4141 15.39851991108513
ExoCube 2
1 47319U 21002L   22363.52313952  .00011880  00000-0  42044-3 0  9990
2 47319  60.6832 347.5309 0039770  91.4886 269.0760 15.28847104108193
UVSQ-SAT
1 47438U 21006AB  22363.41150517  .00007154  00000-0  35009-3 0  9992
2 47438  97.4123  58.4533 0010196 324.1101  35.9447 15.18449661106836
YUSAT 1
1 47439U 21006AC  22363.42911051  .00008878  00000-0  42154-3 0  9995
2 47439  97.4132  58.7773 0009822 323.4205  36.6358 15.19431783106855
SOMP 2b
1 47445U 21006AJ  22363.39593557  .00007451  00000-0  36995-3 0  9997
2 47445  97.4096  57.9166 0010073 329.2890  30.7753 15.17930111106819
IDEASSat
1 47458U 21006AX  22363.13564601  .00006539  00000-0  32702-3 0  9999
2 47458  97.4183  58.3357 0009312 329.3603  30.7086 15.17733030106768
CubeSX-Sirius-HSE
1 47951U 21022V   22363.80967859  .00006021  00000-0  37884-3 0  9993
2 47951  97.5136 259.2259 0019527 193.3838 239.0215 15.09411154 97449
CubeSX-HSE
1 47952U 21022W   22363.78928860  .00006774  00000-0  42492-3 0  9996
2 47952  97.5139 259.2390 0019709 192.6782 237.9348 15.09474974 97444
KSU-Cubesat
1 47954U 21022Y   22362.70684210  .00006252  00000-0  38840-3 0  9990
2 47954  97.5143 258.3807 0018956 195.0552 165.0116 15.09875371 97012
GRBAlpha
1 47959U 21022AD  22363.84835226  .00006768  00000-0  42406-3 0  9991
2 47959  97.5146 259.3555 0019522 192.8308 231.9099 15.09520775 96270
Orbicraft-Zorkiy
1 47960U 21022AE  22363.80027172  .00007323  00000-0  45464-3 0  9997
2 47960  97.5164 259.5513 0019189 192.8377 255.7699 15.09834118 96968
STECCO
1 47962U 21022AG  22363.77220728  .00010826  00000-0  61718-3 0  9999
2 47962  97.5131 260.8257 0014087 182.4346 264.5600 15.12875374 96364
DO-111
1 47963U 21022AH  22363.40644907  .00026629  00000-0  11590-2 0  9999
2 47963  97.5167 263.2824 0013439 168.2027 191.9527 15.22128745 96500
MO-110
1 47964U 21022AJ  22363.41550737  .00010038  00000-0  56435-3 0  9993
2 47964  97.5143 260.8783 0016748 180.2480 179.8746 15.13361592 96333
FEES
1 48082U 21022AL  22362.94872195  .00013557  00000-0  72322-3 0  9999
2 48082  97.5147 260.6565 0012757 175.7748 184.3595 15.15205889 95988
CSS
1 48274U 21035A   22363.79827161  .00017318  00000-0  21161-3 0  9997
2 48274  41.4764 108.1708 0005697 237.7628 261.5303 15.60009205 95349
TUBIN
1 48900U 21059X   22363.86665688  .00005797  00000-0  30738-3 0  9999
2 48900  97.5772 132.1334 0010575 142.0722  21.3960 15.15716126 83493
IT-SPINS
1 49017U 21013G   22363.54608007  .00011640  00000-0  39180-3 0  9990
2 49017  51.5945 183.2133 0007434  71.2484 288.9302 15.31191064 83629
LEDSAT
1 49069U 21073D   22363.47792942  .00005759  00000-0  35100-3 0  9999
2 49069  97.5047  72.4952 0025681 348.8759  11.1900 15.10477143 75251
CUTE
1 49263U 21088D   22363.14783394  .00005075  00000-0  36103-3 0  9991
2 49263  97.5665  67.1575 0020363 121.3609 238.9613 15.04923530 68683
TeikyoSat 4
1 49396U 21102B   22363.42864447  .00001877  00000-0  15009-3 0  9993
2 49396  97.5426  55.4906 0015985 324.5136  35.5024 15.01313712 62299
Z-Sat
1 49399U 21102E   22363.84317632  .00003278  00000-0  24476-3 0  9996
2 49399  97.5107  57.0662 0021849 287.0615  72.8217 15.03327639 62435
KOSEN 1
1 49402U 21102H   22363.62356914  .00003328  00000-0  24027-3 0  9991
2 49402  97.5056  57.1316 0020076 277.4531  82.4414 15.04618457 62440
HO-113
1 50466U 21131B   22363.55188098  .00000316  00000-0  11771-3 0  9999
2 50466  98.5669  80.5756 0003485 288.0708  72.0099 14.38605526 52969
Tevel-3
1 50988U 22002E   22363.37969559  .00011043  00000-0  55022-3 0  9991
2 50988  97.4589  67.2335 0010323 104.6014  26.0089 15.17687636 52940
Tevel-8
1 50989U 22002F   22363.78896293  .00011083  00000-0  55295-3 0  9997
2 50989  97.4600  67.6761 0010266 103.0259  36.5637 15.17640241 53006
Tevel-5
1 50998U 22002Q   22363.79777950  .00011275  00000-0  55229-3 0  9996
2 50998  97.4585  67.8682 0011900 100.0786  38.7986 15.18262774 53025
Tevel-6
1 50999U 22002R   22363.44381699  .00011216  00000-0  54944-3 0  9998
2 50999  97.4585  67.5153 0011856 101.7401 269.2549 15.18261174 52970
Tevel-1
1 51013U 22002AF  22363.83467417  .00011105  00000-0  55358-3 0  9999
2 51013  97.4582  67.6451 0010370 103.9974 319.6884 15.17667947 53011
Grizu-263a
1 51025U 22002AT  22363.13627591  .00020091  00000-0  84303-3 0  9992
2 51025  97.4757  69.1739 0012127 103.1745 257.0846 15.23445329 53001
NO-116
1 51031U 22002AZ  22363.45306145  .00013699  00000-0  62689-3 0  9992
2 51031  97.4714  68.6966 0013054 103.9677 256.3011 15.20559837 53013
IRIS-A
1 51044U 22002BN  22363.13992125  .00006052  00000-0  32345-3 0  9991
2 51044  97.4597  66.4732 0010254 108.3311 251.9037 15.15409695 52878
Tevel-7
1 51062U 22002CG  22363.79099472  .00011133  00000-0  55538-3 0  9991
2 51062  97.4597  67.6576 0010296 102.0614  37.4207 15.17641185 53006
Tevel-4
1 51063U 22002CH  22363.79299471  .00011075  00000-0  55285-3 0  9997
2 51063  97.4601  67.6527 0010428 103.0578  36.1755 15.17620695 53003
Tevel-2
1 51069U 22002CP  22363.30403326  .00011006  00000-0  54851-3 0  9998
2 51069  97.4585  67.1369 0010161 104.4725 323.0760 15.17681953 52931
DELFI-PQ
1 51074U 22002CU  22363.42472105  .00014857  00000-0  64196-3 0  9998
2 51074  97.4840  70.0858 0013111 130.4845 229.7536 15.22504175 53061
SO-115
1 51080U 22002DA  22363.44230125  .00009801  00000-0  45373-3 0  9990
2 51080  97.4853  69.6644 0013533 131.6035 228.6362 15.20243898 53033
SO-114
1 51081U 22002DB  22363.44174221  .00009959  00000-0  46044-3 0  9995
2 51081  97.4844  69.6275 0013825 131.5266 228.7158 15.20278876 53031
OreSat0
1 52017U 22026K   22362.57273897  .00009619  00000-0  47152-3 0  9997
2 52017  97.5092   0.3496 0024596 324.4491  35.5103 15.18077579 43604
Planetum 1
1 52738U 22057G   22363.54913317  .00008074  00000-0  44116-3 0  9998
2 52738  97.5260 115.4888 0007055 210.9120 149.1697 15.14548098 32932
Foresail-1
1 52766U 22057AL  22363.81277141  .00006486  00000-0  34750-3 0  9995
2 52766  97.5369 116.4084 0012742 192.7837 318.4872 15.15278085 32992
SNUGLITE 2
1 52899U 22065F   22363.13772295  .00000941  00000-0  21159-3 0  9995
2 52899  98.0429 148.0532 0008747  35.4264 324.7516 14.58634945 26061
CTIM
1 52950U 22074G   22363.65063070  .00014392  00000-0  51564-3 0  9992
2 52950  45.0195 216.0083 0007381 233.5770 126.4386 15.28681165 27544
IO-117
1 53106U 22080B   22354.08419093 -.00000003  00000-0  00000 0 0  9990
2 53106  70.1702  21.9397 0008914 226.9685 182.2049  6.42557326 10248
AstroBioCubeSat
1 53107U 22080C   22335.48380186 -.00000003  00000-0  00000-0 0  9995
2 53107  70.1769  28.4953 0013706 220.7562 139.2073  6.42110748  8950
CELESTA
1 53111U 22080G   22310.17474584 -.00000003  00000-0  00000 0 0  9994
2 53111  70.4223  37.2580 0024959 243.8956 115.9136  6.43203861  7301
RS4S
1 53306U 98067TR  22363.61123873  .00228189  00000-0  12144-2 0  9998
2 53306  51.6314  76.5257 0006178 330.1086  29.9561 15.79222896 25138
RS3S
1 53308U 98067TT  22363.64028046  .00199597  00000-0  11410-2 0  9994
2 53308  51.6332  76.7215 0005815 327.7694  32.2950 15.77717068 25193
RS1S
1 53309U 98067TU  22363.47782636  .00228712  00000-0  12352-2 0  9996
2 53309  51.6320  77.1241 0006425 328.1755  31.8857 15.78894315 25122
RS5S
1 53310U 98067TV  22363.57469876  .00209826  00000-0  11905-2 0  9995
2 53310  51.6341  77.0332 0005801 324.1522  35.9088 15.77855055 25164
RS6S
1 53311U 98067TW  22363.69247037  .00241877  00000-0  12211-2 0  9995
2 53311  51.6306  75.5512 0006174 333.5341  26.5344 15.80343472 25212
RS9S
1 53312U 98067TX  22363.80308911  .00224211  00000-0  12302-2 0  9992
2 53312  51.6307  75.5546 0006645 328.9245  31.1362 15.78554161 25167
RS12S
1 53313U 98067TY  22363.66986865  .00214022  00000-0  11727-2 0  9996
2 53313  51.6330  76.1684 0006464 331.5789  28.4858 15.78615351 25197
JAGSAT
1 53771U 98067UJ  22363.51500114  .00271582  00000-0  14344-2 0  9999
2 53771  51.6314  78.8861 0008552 335.4271  24.6322 15.79246914 17845
SelfieSat
1 53951U 22057BA  22363.29429244  .00007819  00000-0  42252-3 0  9994
2 53951  97.5311 115.5095 0009531 205.8851 154.1905 15.14936768 32903
